[{"OBJECT_NAME":"STARLINK-5038","OBJECT_ID":"2023-064AA","EPOCH":"2026-03-09T14:14:00.460896","MEAN_MOTION":14.98345369,"ECCENTRICITY":0.0002868,"INCLINATION":70.0006,"RA_OF_ASC_NODE":124.7539,"ARG_OF_PERICENTER":262.8669,"MEAN_ANOMALY":97.2164,"EPHEMERIS_TYPE":0,"CLASSIFICATION_TYPE":"U","NORAD_CAT_ID":56472,"ELEMENT_SET_NO":999,"REV_AT_EPOCH":15572,"BSTAR":0.00014923,"MEAN_MOTION_DOT":1.689e-5,"MEAN_MOTION_DDOT":0},{"OBJECT_NAME":"NOAA 16 DEB","OBJECT_ID":"2000-055PP","EPOCH":"2026-03-07T09:37:02.399808","MEAN_MOTION":14.94870962,"ECCENTRICITY":0.00127779,"INCLINATION":98.9453,"RA_OF_ASC_NODE":285.7448,"ARG_OF_PERICENTER":347.412,"MEAN_ANOMALY":12.6776,"EPHEMERIS_TYPE":0,"CLASSIFICATION_TYPE":"U","NORAD_CAT_ID":41709,"ELEMENT_SET_NO":999,"REV_AT_EPOCH":51965,"BSTAR":0.009194972,"MEAN_MOTION_DOT":0.00101727,"MEAN_MOTION_DDOT":0}]
